NORAD_CAT_ID,OBJECT_NAME,OBJECT_TYPE,EPOCH,MEAN_MOTION,ECCENTRICITY,INCLINATION,RA_OF_ASC_NODE,ARG_OF_PERICENTER,MEAN_ANOMALY,BSTAR,MEAN_MOTION_DOT,MEAN_MOTION_DDOT,TLE_LINE0,TLE_LINE1,TLE_LINE2,SEMIMAJOR_AXIS,PERIOD,APOGEE,PERIGEE,DECAYED
55787.0,STARLINK-5811,PAYLOAD,2024-01-21 06:32:58,14.98332895,0.0002838,70.0002,7.2526,268.5071,91.5763,3.8481e-05,3.66e-06,0.0,0 STARLINK-5811,1 55787U 23028AY  24021.27289399  .00000366  00000-0  38481-4 0  9998,2 55787  70.0002   7.2526 0002838 268.5071  91.5763 14.98332895 50429,6950.184,96.107,574.021,570.076,0.0
55787.0,STARLINK-5811,PAYLOAD,2024-01-21 08:09:05,14.98336132,0.0002756,70.0004,7.0844,267.0435,93.0409,4.1727e-05,4.05e-06,0.0,0 STARLINK-5811,1 55787U 23028AY  24021.33965169  .00000405  00000-0  41727-4 0  9992,2 55787  70.0004   7.0844 0002756 267.0435  93.0409 14.98336132 50421,6950.174,96.107,573.954,570.123,0.0
55787.0,STARLINK-5811,PAYLOAD,2024-01-21 22:34:19,14.98343654,0.0001801,70.0048,5.5728,227.4752,132.6255,-0.00047443,-5.751e-05,0.0,0 STARLINK-5811,1 55787U 23028AY  24021.94050622 -.00005751  00000-0 -47443-3 0  9999,2 55787  70.0048   5.5728 0001801 227.4752 132.6255 14.98343654 50522,6950.151,96.106,573.267,570.764,0.0
55787.0,STARLINK-5811,PAYLOAD,2024-01-22 03:22:44,14.98305038,0.0002385,70.0017,5.0664,258.0403,102.0489,-2.2004e-05,-3.55e-06,0.0,0 STARLINK-5811,1 55787U 23028AY  24022.14079794 -.00000355  00000-0 -22004-4 0  9995,2 55787  70.0017   5.0664 0002385 258.0403 102.0489 14.98305038 50549,6950.27,96.109,573.793,570.477,0.0
55787.0,STARLINK-5811,PAYLOAD,2024-01-22 06:35:01,14.98304727,0.0002339,70.0019,4.73,257.1952,102.8946,-2.4084e-05,-3.8e-06,0.0,0 STARLINK-5811,1 55787U 23028AY  24022.27432037 -.00000380  00000-0 -24084-4 0  9990,2 55787  70.0019   4.7300 0002339 257.1952 102.8946 14.98304727 50575,6950.271,96.109,573.762,570.51,0.0
55787.0,STARLINK-5811,PAYLOAD,2024-01-22 22:36:21,14.98325661,0.0002849,70.0004,3.0456,265.762,94.3213,-5.6075e-05,-7.62e-06,0.0,0 STARLINK-5811,1 55787U 23028AY  24022.94191392 -.00000762  00000-0 -56075-4 0  9999,2 55787  70.0004   3.0456 0002849 265.7620  94.3213 14.98325661 50679,6950.206,96.107,574.051,570.091,0.0
55787.0,STARLINK-5811,PAYLOAD,2024-01-23 03:24:45,14.98325309,0.0002828,70.0008,2.5398,267.9118,92.1717,-8.1165e-06,-1.9e-06,0.0,0 STARLINK-5811,1 55787U 23028AY  24023.14219324 -.00000190  00000-0 -81165-5 0  9992,2 55787  70.0008   2.5398 0002828 267.9118  92.1717 14.98325309 50691,6950.207,96.107,574.038,570.107,0.0
55787.0,STARLINK-5811,PAYLOAD,2024-01-23 06:37:01,14.98330947,0.0002262,70.002,2.2049,246.5733,113.5189,4.523e-05,4.47e-06,0.0,0 STARLINK-5811,1 55787U 23028AY  24023.27570751  .00000447  00000-0  45230-4 0  9995,2 55787  70.0020   2.2049 0002262 246.5733 113.5189 14.98330947 50722,6950.19,96.107,573.627,570.483,0.0
55787.0,STARLINK-5811,PAYLOAD,2024-01-23 08:13:08,14.9833434,0.0002404,70.0014,2.0351,261.2085,98.8802,7.002e-05,7.43e-06,0.0,0 STARLINK-5811,1 55787U 23028AY  24023.34246503  .00000743  00000-0  70020-4 0  9992,2 55787  70.0014   2.0351 0002404 261.2085  98.8802 14.98334340 50729,6950.179,96.107,573.715,570.374,0.0
55787.0,STARLINK-5811,PAYLOAD,2024-01-23 22:38:21,14.98331307,0.0002496,70.0008,0.5187,265.9711,94.1163,0.00023487,2.711e-05,0.0,0 STARLINK-5811,1 55787U 23028AY  24023.94330238  .00002711  00000-0  23487-3 0  9998,2 55787  70.0008   0.5187 0002496 265.9711  94.1163 14.98331307 50820,6950.189,96.107,573.789,570.319,0.0
55787.0,STARLINK-5811,PAYLOAD,2024-01-24 08:15:09,14.98335481,0.0002318,70.0017,359.5115,260.361,99.7287,0.00028104,3.262e-05,0.0,0 STARLINK-5811,1 55787U 23028AY  24024.34385759  .00003262  00000-0  28104-3 0  9994,2 55787  70.0017 359.5115 0002318 260.3610  99.7287 14.98335481 50878,6950.176,96.107,573.652,570.43,0.0
55787.0,STARLINK-5811,PAYLOAD,2024-01-24 22:40:21,14.98340546,0.0002297,70.0022,357.999,244.7942,115.2979,2.2098e-05,1.71e-06,0.0,0 STARLINK-5811,1 55787U 23028AY  24024.94469832  .00000171  00000-0  22098-4 0  9998,2 55787  70.0022 357.9990 0002297 244.7942 115.2979 14.98340546 50978,6950.16,96.106,573.622,570.429,0.0
55787.0,STARLINK-5811,PAYLOAD,2024-01-25 08:17:10,14.98335975,0.0002337,70.0019,356.9886,252.5413,107.5491,-3.9631e-05,-5.66e-06,0.0,0 STARLINK-5811,1 55787U 23028AY  24025.34526059 -.00000566  00000-0 -39631-4 0  9999,2 55787  70.0019 356.9886 0002337 252.5413 107.5491 14.98335975 51022,6950.174,96.107,573.664,570.415,0.0
55787.0,STARLINK-5811,PAYLOAD,2024-01-25 22:42:22,14.98339431,0.0002235,70.0022,355.4736,259.6923,100.3984,-0.00010807,-1.382e-05,0.0,0 STARLINK-5811,1 55787U 23028AY  24025.94609738 -.00001382  00000-0 -10807-3 0  9991,2 55787  70.0022 355.4736 0002235 259.6923 100.3984 14.98339431 51125,6950.164,96.106,573.582,570.475,0.0
55787.0,STARLINK-5811,PAYLOAD,2024-01-26 08:19:10,14.98339649,0.0002236,70.0021,354.4635,256.6005,103.4905,-8.9707e-05,-1.163e-05,0.0,0 STARLINK-5811,1 55787U 23028AY  24026.34665404 -.00001163  00000-0 -89707-4 0  9991,2 55787  70.0021 354.4635 0002236 256.6005 103.4905 14.98339649 51173,6950.163,96.106,573.582,570.474,0.0
55787.0,STARLINK-5811,PAYLOAD,2024-01-27 03:32:48,14.98322996,0.000219,70.0024,352.4438,246.9107,113.1821,-8.0542e-05,-1.053e-05,0.0,0 STARLINK-5811,1 55787U 23028AY  24027.14778293 -.00001053  00000-0 -80542-4 0  9997,2 55787  70.0024 352.4438 0002190 246.9107 113.1821 14.98322996 51294,6950.215,96.107,573.602,570.557,0.0
55787.0,STARLINK-5811,PAYLOAD,2024-01-27 06:45:04,14.98322788,0.0002188,70.0024,352.1074,248.4569,111.6357,-8.1828e-05,-1.069e-05,0.0,0 STARLINK-5811,1 55787U 23028AY  24027.28130376 -.00001069  00000-0 -81828-4 0  9991,2 55787  70.0024 352.1074 0002188 248.4569 111.6357 14.98322788 51323,6950.215,96.107,573.601,570.559,0.0
55787.0,STARLINK-5811,PAYLOAD,2024-01-27 21:10:16,14.9833051,0.0002374,70.0026,350.5926,237.9341,122.1588,1.5451e-05,9.1e-07,0.0,0 STARLINK-5811,1 55787U 23028AY  24027.88213616  .00000091  00000-0  15451-4 0  9997,2 55787  70.0026 350.5926 0002374 237.9341 122.1588 14.98330510 51416,6950.191,96.107,573.706,570.406,0.0
55787.0,STARLINK-5811,PAYLOAD,2024-01-28 03:34:49,14.98328686,0.0002588,70.0014,349.917,261.8098,98.2768,-2.2991e-05,-3.67e-06,0.0,0 STARLINK-5811,1 55787U 23028AY  24028.14917939 -.00000367  00000-0 -22991-4 0  9991,2 55787  70.0014 349.9170 0002588 261.8098  98.2768 14.98328686 51445,6950.197,96.107,573.861,570.263,0.0
55787.0,STARLINK-5811,PAYLOAD,2024-01-28 06:47:04,14.98332801,0.0002476,70.001,349.5806,268.0453,92.0423,-9.4939e-06,-2.06e-06,0.0,0 STARLINK-5811,1 55787U 23028AY  24028.28269615 -.00000206  00000-0 -94939-5 0  9991,2 55787  70.0010 349.5806 0002476 268.0453  92.0423 14.98332801 51470,6950.184,96.107,573.77,570.328,0.0
55787.0,STARLINK-5811,PAYLOAD,2024-01-28 22:48:25,14.98328276,0.0002728,70.001,347.8966,271.6011,88.4836,8.7551e-05,9.52e-06,0.0,0 STARLINK-5811,1 55787U 23028AY  24028.95029631  .00000952  00000-0  87551-4 0  9994,2 55787  70.0010 347.8966 0002728 271.6011  88.4836 14.98328276 51577,6950.198,96.107,573.959,570.167,0.0
55787.0,STARLINK-5811,PAYLOAD,2024-01-29 03:36:49,14.98332135,0.0002585,70.0008,347.3926,263.9102,96.1763,7.1827e-05,7.64e-06,0.0,0 STARLINK-5811,1 55787U 23028AY  24029.15057416  .00000764  00000-0  71827-4 0  9999,2 55787  70.0008 347.3926 0002585 263.9102  96.1763 14.98332135 51597,6950.186,96.107,573.848,570.255,0.0
55787.0,STARLINK-5811,PAYLOAD,2024-01-29 06:49:05,14.98332219,0.0002893,70.0005,347.0551,276.6925,83.3905,0.00012658,1.418e-05,0.0,0 STARLINK-5811,1 55787U 23028AY  24029.28409266  .00001418  00000-0  12658-3 0  9990,2 55787  70.0005 347.0551 0002893 276.6925  83.3905 14.98332219 51624,6950.186,96.107,574.062,570.04,0.0
55787.0,STARLINK-5811,PAYLOAD,2024-01-30 03:38:50,14.98328594,0.0002012,70.0018,344.8675,265.8754,94.2175,-1.2626e-05,-2.43e-06,0.0,0 STARLINK-5811,1 55787U 23028AY  24030.15197861 -.00000243  00000-0 -12626-4 0  9996,2 55787  70.0018 344.8675 0002012 265.8754  94.2175 14.98328594 51747,6950.197,96.107,573.461,570.664,0.0
55787.0,STARLINK-5811,PAYLOAD,2024-01-30 06:51:07,14.98328797,0.0001999,70.0019,344.53,270.9015,89.1915,-1.104e-05,-2.25e-06,0.0,0 STARLINK-5811,1 55787U 23028AY  24030.28549800 -.00000225  00000-0 -11040-4 0  9993,2 55787  70.0019 344.5300 0001999 270.9015  89.1915 14.98328797 51773,6950.197,96.107,573.451,570.672,0.0
55787.0,STARLINK-5811,PAYLOAD,2024-01-30 22:52:27,14.98317151,0.0002391,70.0013,342.8464,273.1137,86.9749,0.00024956,2.885e-05,0.0,0 STARLINK-5811,1 55787U 23028AY  24030.95309484  .00002885  00000-0  24956-3 0  9990,2 55787  70.0013 342.8464 0002391 273.1137  86.9749 14.98317151 51879,6950.233,96.108,573.759,570.436,0.0
55787.0,STARLINK-5811,PAYLOAD,2024-01-31 03:40:51,14.98333366,0.0002303,70.0009,342.3419,261.7448,98.345,-2.9961e-05,-4.5e-06,0.0,0 STARLINK-5811,1 55787U 23028AY  24031.15337353 -.00000450  00000-0 -29961-4 0  9999,2 55787  70.0009 342.3419 0002303 261.7448  98.3450 14.98333366 51894,6950.182,96.107,573.648,570.447,0.0
55787.0,STARLINK-5811,PAYLOAD,2024-01-31 06:53:07,14.98335276,0.0002491,70.0008,342.0055,269.8414,90.2459,-1.5368e-05,-2.76e-06,0.0,0 STARLINK-5811,1 55787U 23028AY  24031.28689154 -.00000276  00000-0 -15368-4 0  9994,2 55787  70.0008 342.0055 0002491 269.8414  90.2459 14.98335276 51922,6950.177,96.107,573.773,570.31,0.0
55787.0,STARLINK-5811,PAYLOAD,2024-01-31 19:42:12,14.98333199,0.0002066,70.0019,340.659,270.9563,89.1359,-5.0256e-05,-6.92e-06,0.0,0 STARLINK-5811,1 55787U 23028AY  24031.82097557 -.00000692  00000-0 -50256-4 0  9991,2 55787  70.0019 340.6590 0002066 270.9563  89.1359 14.98333199 52006,6950.183,96.107,573.484,570.612,0.0
55787.0,STARLINK-5811,PAYLOAD,2024-02-01 03:42:52,14.98326566,0.0002215,70.0012,339.8174,276.5787,83.512,-7.2583e-05,-9.59e-06,0.0,0 STARLINK-5811,1 55787U 23028AY  24032.15477990 -.00000959  00000-0 -72583-4 0  9994,2 55787  70.0012 339.8174 0002215 276.5787  83.5120 14.98326566 52041,6950.204,96.107,573.608,570.529,0.0
